[
  {
    "name": "KUIPER-00250",
    "noradId": "67155",
    "line1": "1 67155U 25301Y   26165.79527962  .00002803  00000+0  39652-3 0  9992",
    "line2": "2 67155  51.8991   1.1979 0000783 105.6045 254.5004 14.79938028 28073"
  },
  {
    "name": "KUIPER-00251",
    "noradId": "67156",
    "line1": "1 67156U 25301Z   26165.67371204 -.00000715  00000+0 -64777-4 0  9995",
    "line2": "2 67156  51.9014 349.2998 0000674 178.0879 182.0086 14.79930358 28383"
  },
  {
    "name": "KUIPER-00252",
    "noradId": "67157",
    "line1": "1 67157U 25301AA  26165.80607234  .00001090  00000+0  17196-3 0  9993",
    "line2": "2 67157  51.9006 351.1653 0000651 100.9150 259.1886 14.79934074 28187"
  },
  {
    "name": "KUIPER-00261",
    "noradId": "67158",
    "line1": "1 67158U 25301AB  26166.23423242  .00001809  00000+0  26623-3 0  9990",
    "line2": "2 67158  51.9030 359.3209 0000767 109.0579 251.0466 14.79938849 28106"
  },
  {
    "name": "KUIPER-00265",
    "noradId": "67159",
    "line1": "1 67159U 25301AC  26165.84663632  .00001968  00000+0  28703-3 0  9993",
    "line2": "2 67159  51.9034  16.0092 0000726 102.0322 258.0722 14.79939841 27870"
  },
  {
    "name": "KUIPER-00159",
    "noradId": "67764",
    "line1": "1 67764U 26030A   26166.54513692  .00036969  00000+0  97293-3 0  9992",
    "line2": "2 67764  51.8853 106.2915 0007199  42.0057 318.1481 15.38177328 20148"
  },
  {
    "name": "KUIPER-00160",
    "noradId": "67765",
    "line1": "1 67765U 26030B   26166.54521501  .00033231  00000+0  86489-3 0  9995",
    "line2": "2 67765  51.8818 106.2461 0006894  51.3850 308.7754 15.38573215 20144"
  },
  {
    "name": "KUIPER-00177",
    "noradId": "67766",
    "line1": "1 67766U 26030C   26166.19871497  .00002015  00000+0  29327-3 0  9993",
    "line2": "2 67766  51.9002 141.9375 0000634  79.7978 280.3056 14.79928101 19614"
  },
  {
    "name": "KUIPER-00178",
    "noradId": "67767",
    "line1": "1 67767U 26030D   26166.22616787  .00001576  00000+0  25470-3 0  9993",
    "line2": "2 67767  51.8991 141.7348 0000678  39.1301 320.9708 14.76498130 19624"
  },
  {
    "name": "KUIPER-00180",
    "noradId": "67768",
    "line1": "1 67768U 26030E   26166.17033207  .00002056  00000+0  29853-3 0  9991",
    "line2": "2 67768  51.8980 137.0547 0000599  68.6220 291.4806 14.79937147 19687"
  },
  {
    "name": "KUIPER-00197",
    "noradId": "67769",
    "line1": "1 67769U 26030F   26166.11327912  .00001840  00000+0  29340-3 0  9996",
    "line2": "2 67769  51.8990 117.2038 0002122 106.4337 253.6857 14.76322165 19959"
  },
  {
    "name": "KUIPER-00198",
    "noradId": "67770",
    "line1": "1 67770U 26030G   26166.14464195 -.00000830  00000+0 -79904-4 0  9998",
    "line2": "2 67770  51.8981 129.6654 0000763 108.0432 252.0614 14.79925816 19785"
  },
  {
    "name": "KUIPER-00199",
    "noradId": "67771",
    "line1": "1 67771U 26030H   26166.54630742  .00021156  00000+0  59657-3 0  9990",
    "line2": "2 67771  51.8809 107.7199 0011664  50.3782 309.8232 15.36303930 20123"
  },
  {
    "name": "KUIPER-00200",
    "noradId": "67772",
    "line1": "1 67772U 26030J   26166.58335648 -.00014761  00000+0 -86021-3 0  9993",
    "line2": "2 67772  51.8886 114.4058 0003851  73.6430 313.5817 15.10878625  4320"
  },
  {
    "name": "KUIPER-00203",
    "noradId": "67773",
    "line1": "1 67773U 26030K   26166.12576929 -.00000244  00000+0 -29597-5 0  9991",
    "line2": "2 67773  51.9051 147.2882 0000664  61.2671 298.8358 14.79924550 19531"
  },
  {
    "name": "KUIPER-00205",
    "noradId": "67774",
    "line1": "1 67774U 26030L   26166.58335648 -.00016857  00000+0 -17202-2 0  9997",
    "line2": "2 67774  51.9068 110.3548 0005326 354.6610 355.1118 14.89745884  3606"
  },
  {
    "name": "KUIPER-00208",
    "noradId": "67775",
    "line1": "1 67775U 26030M   26166.16208554  .00001567  00000+0  25385-3 0  9999",
    "line2": "2 67775  51.8970 138.8427 0007746  29.2869 330.8524 14.76447514 19656"
  },
  {
    "name": "KUIPER-00209",
    "noradId": "67776",
    "line1": "1 67776U 26030N   26166.20409051  .00001069  00000+0  16914-3 0  9995",
    "line2": "2 67776  51.9003 136.9943 0000453  34.3751 325.7241 14.79932469 19685"
  },
  {
    "name": "KUIPER-00213",
    "noradId": "67777",
    "line1": "1 67777U 26030P   26166.57822378  .00002514  00000+0  35869-3 0  9993",
    "line2": "2 67777  51.8951 132.8298 0000922  79.4650 280.6416 14.79932504 19777"
  },
  {
    "name": "KUIPER-00214",
    "noradId": "67778",
    "line1": "1 67778U 26030Q   26166.20950883 -.00000319  00000+0 -12840-4 0  9995",
    "line2": "2 67778  51.8999 131.9595 0000688  69.8933 290.2103 14.79928706 19753"
  },
  {
    "name": "KUIPER-00215",
    "noradId": "67779",
    "line1": "1 67779U 26030R   26166.12070089  .00001738  00000+0  27817-3 0  9991",
    "line2": "2 67779  51.8983 119.0136 0000639  40.0592 320.0416 14.76425183 19930"
  },
  {
    "name": "KUIPER-00218",
    "noradId": "67780",
    "line1": "1 67780U 26030S   26166.47680826  .00031082  00000+0  40873-2 0  9998",
    "line2": "2 67780  51.8965 133.1904 0001127  94.4478 265.6613 14.79933074 19761"
  },
  {
    "name": "KUIPER-00220",
    "noradId": "67781",
    "line1": "1 67781U 26030T   26166.55009945 -.00012229  00000+0 -71608-3 0  9990",
    "line2": "2 67781  51.8898 110.6202 0009368  59.1739 301.0157 15.10500972 20089"
  },
  {
    "name": "KUIPER-00222",
    "noradId": "67782",
    "line1": "1 67782U 26030U   26166.17844654  .00002072  00000+0  30067-3 0  9990",
    "line2": "2 67782  51.8978 129.6647 0000603  48.1279 311.9735 14.79936429 19783"
  },
  {
    "name": "KUIPER-00223",
    "noradId": "67783",
    "line1": "1 67783U 26030V   26166.55799543  .00002830  00000+0  40011-3 0  9991",
    "line2": "2 67783  51.9017 120.2730 0000990  87.0212 273.0864 14.79930499 19958"
  },
  {
    "name": "KUIPER-00225",
    "noradId": "67784",
    "line1": "1 67784U 26030W   26166.14728881 -.00010892  00000+0 -14042-2 0  9997",
    "line2": "2 67784  51.8976 127.2577 0001230  98.9609 261.1492 14.79867548 19811"
  },
  {
    "name": "KUIPER-00226",
    "noradId": "67785",
    "line1": "1 67785U 26030X   26166.57036534  .00009851  00000+0  42532-3 0  9999",
    "line2": "2 67785  51.8800 114.4339 0019254  55.7107 304.5693 15.22970472 20032"
  },
  {
    "name": "KUIPER-00259",
    "noradId": "67786",
    "line1": "1 67786U 26030Y   26166.18093266  .00002394  00000+0  34246-3 0  9990",
    "line2": "2 67786  51.8975 127.0111 0000554 224.9966 135.0951 14.79997428 19820"
  },
  {
    "name": "KUIPER-00260",
    "noradId": "67787",
    "line1": "1 67787U 26030Z   26164.62840163  .00114555  00000+0  15862-1 0  9998",
    "line2": "2 67787  51.8995 131.4453 0000568  60.3261 299.7756 14.76999930 19532"
  },
  {
    "name": "KUIPER-00262",
    "noradId": "67788",
    "line1": "1 67788U 26030AA  26166.14973205  .00002532  00000+0  36039-3 0  9994",
    "line2": "2 67788  51.9009 124.6560 0000471  79.6832 280.4184 14.80009470 19856"
  },
  {
    "name": "KUIPER-00266",
    "noradId": "67789",
    "line1": "1 67789U 26030AB  26166.18639952  .00002389  00000+0  34211-3 0  9997",
    "line2": "2 67789  51.8998 121.9953 0004364  87.3210 272.8252 14.79958914 19899"
  },
  {
    "name": "KUIPER-00268",
    "noradId": "67790",
    "line1": "1 67790U 26030AC  26166.56066593  .00002812  00000+0  39744-3 0  9993",
    "line2": "2 67790  51.9038 117.8442 0001060  98.1979 261.9103 14.79959647 19984"
  },
  {
    "name": "KUIPER-00270",
    "noradId": "67791",
    "line1": "1 67791U 26030AD  26166.58335648 -.00053212  00000+0 -36012-2 0  9992",
    "line2": "2 67791  51.8938 109.0807 0010894  30.3729 196.5182 15.06101930  4054"
  },
  {
    "name": "KUIPER-00274",
    "noradId": "67792",
    "line1": "1 67792U 26030AE  26166.10834925  .00008958  00000+0  12028-2 0  9999",
    "line2": "2 67792  51.9007 132.3292 0001444 134.7468 225.3612 14.79924357 19746"
  },
  {
    "name": "KUIPER-00275",
    "noradId": "67793",
    "line1": "1 67793U 26030AF  26166.58335648 -.00030111  00000+0 -29209-2 0  9997",
    "line2": "2 67793  51.8967 110.6142 0008705  54.0474  26.7844 14.92073453  4675"
  },
  {
    "name": "KUIPER-00276",
    "noradId": "67794",
    "line1": "1 67794U 26030AG  26166.58335648 -.00000424  00000+0 -13679-4 0  9998",
    "line2": "2 67794  51.9009 115.7728 0017573  27.3255 129.6220 14.96957807  5718"
  },
  {
    "name": "KUIPER-00279",
    "noradId": "67795",
    "line1": "1 67795U 26030AH  26166.58335648  .00006160  00000+0  29647-3 0  9991",
    "line2": "2 67795  51.8851 107.6037 0009447  33.3963 116.9609 15.20024354  5530"
  },
  {
    "name": "KUIPER-00131",
    "noradId": "68573",
    "line1": "1 68573U 26072A   26166.40141811  .00000446  00000+0  87462-4 0  9991",
    "line2": "2 68573  51.8994 203.5461 0000541  90.9559 269.1466 14.79927654 10857"
  },
  {
    "name": "KUIPER-00189",
    "noradId": "68574",
    "line1": "1 68574U 26072B   26166.49987809  .00034599  00000+0  45465-2 0  9997",
    "line2": "2 68574  51.8973 205.5977 0001163  95.4394 264.6701 14.79910652 10837"
  },
  {
    "name": "KUIPER-00192",
    "noradId": "68575",
    "line1": "1 68575U 26072C   26166.40410165  .00001937  00000+0  28302-3 0  9997",
    "line2": "2 68575  51.8984 201.0323 0000505  85.2855 274.8165 14.79931873 10895"
  },
  {
    "name": "KUIPER-00193",
    "noradId": "68576",
    "line1": "1 68576U 26072D   26166.58335648 -.00002442  00000+0 -24831-3 0  9996",
    "line2": "2 68576  51.8993 189.7613 0003911  41.7110  23.9845 14.86297718  4202"
  },
  {
    "name": "KUIPER-00194",
    "noradId": "68577",
    "line1": "1 68577U 26072E   26166.37300407  .00001835  00000+0  27017-3 0  9991",
    "line2": "2 68577  51.9005 198.6771 0000273 339.4136  20.6816 14.79851945 10923"
  },
  {
    "name": "KUIPER-00229",
    "noradId": "68578",
    "line1": "1 68578U 26072F   26166.50259412 -.00012668  00000+0 -16362-2 0  9994",
    "line2": "2 68578  51.8995 203.0915 0000760 104.4706 255.6341 14.79923666 10873"
  }
]